{
  "norad_id": 66081,
  "name": "STARLINK-35403",
  "history": [
    {
      "epoch": "2026-03-28T21:04:15.322368Z",
      "apogee_km": 476.10467488610175,
      "perigee_km": 474.26935471493834,
      "latitude_deg": 2.326617565549885e-05,
      "longitude_deg": 13.471786164304568,
      "height_km": 476.0181272809413,
      "semi_major_axis_km": 6853.32401480052,
      "eccentricity": 0.0001339,
      "inclination_deg": 53.1578,
      "raan_deg": 155.8277,
      "arg_perigee_deg": 85.8357,
      "mean_anomaly_deg": 274.2797,
      "mean_motion_rev_day": 15.30209396
    }
  ]
}