{"fetched_at":"2026-03-29T16:36:15Z","count":15609,"tles":[{"name":"STARLINK-35403","line1":"1 66081U 25235Z   26087.87795512  .00023084  00000+0  78887-3 0  9992","line2":"2 66081  53.1578 155.8277 0001339  85.8357 274.2797 15.30209396 25866","category":"Starlink"}]}